#dP2024  4 24 18  0  0.00000000      96 __u+U IGS20 EXT  IAC
## 2311 324000.00000000   900.00000000 60424 0.7500000000000
+  119   C06C07C08C09C10C11C12C13C14C16C19C20C21C22C23C24C25
+        C26C27C28C29C30C32C33C34C35C36C37C38C39C40C41C42C43
+        C44C45C46E02E03E04E05E07E08E09E10E11E12E13E14E15E18
+        E19E21E24E25E26E27E30E31E33E34E36G02G03G04G05G06G07
+        G08G09G10G11G12G13G14G15G16G17G18G19G20G21G22G23G24
+        G25G26G27G28G29G30G31G32J02J03J04R01R02R03R04R05R07
+        R08R09R11R12R13R14R15R16R17R18R19R20R21R22R24R25R26
++        11  9 10 11  9  8  8 11  8 11  8  7  8  8  8  7  9
++        10 10  8  8  8  9  6  8  8  8  8  8 10  9  9  9  7
++         7  9  9  6  7  8  6  7  6  6  7  7  7  7  8  7 12
++         7  7  8  7  7  7  6  7  7  8  8  8  8  7  7  6  7
++         6  7  8  8  6  8  8  8  7  7  6  7  8  7  7  6  6
++         9  7  6  7  7  7  7  7 10  9  8  7  7  7  8  8  7
++         9  8  8  9  9  6  8  7  8  8  9  8  7  8  9  7  9
%c M  cc GPS ccc cccc cccc cccc cccc ccccc ccccc ccccc ccccc
%c cc cc ccc ccc cccc cccc cccc cccc ccccc ccccc ccccc ccccc
%f  0.0000000  0.000000000  0.00000000000  0.000000000000000
%f  0.0000000  0.000000000  0.00000000000  0.000000000000000
%i    0    0    0    0      0      0      0      0         0
%i    0    0    0    0      0      0      0      0         0
/* IAC                                ULTRA-RAPID PREDICTION
/* S/V CLOCKS ARE ALIGNED TO GNSS TIME                      
/* G:C1WC2W R:C1PC2P E:C1XC5X C:C2IC6I J:C1CC2S             
/* PCV:IGS20_2290 OL/AL:FES2004  NONE     YN ORB:CoN CLK:CoN
*  2024 04 24 22 45  0.00000000
PC06 -15748.223829  28412.269914  26797.832042    371.925970
PC07  -7868.266999  39916.897826  11583.540708   -789.781840
PC08  -2245.081907  21959.719369 -35901.928587    -54.648212
PC09  -9443.749838  27462.316195  30822.409419   -809.054182
PC10  -1538.169923  42214.541277   4759.366982     74.728182
PC11   -699.473533 -18526.570405  20917.163677    529.144267
PC12  15894.782462 -21889.717642   6890.006945   -236.709564
PC13   5126.560821  25911.511413 -32622.629252    432.765365
PC14  -8122.159902 -26644.642739   -892.079453    723.979015
PC16 -21035.213859  27876.465213  23677.233292   -479.433487
PC19  13270.422688  22459.755835   9985.248710   -913.644507
PC20   2878.514367  26971.795001  -6632.564811   -395.014444
PC21  10342.458865 -15398.104146  20856.044583   -964.050793
PC22  16666.903276   4821.625068  21865.614733    -27.241425
PC23 -27320.216451  -5137.958171   2462.677766   -776.421856
PC24    975.291300 -16510.937489 -22491.423347    934.768836
PC25 -19158.610560 -14730.663108 -13980.509694    383.262534
PC26  19562.057360  -8706.674137 -17896.447412   -281.996106
PC27 -20522.991498  18808.819672   1834.851048    303.692137
PC28 -21965.628614   6065.603371  16107.985363    232.405738
PC29   9914.482207  12853.128599 -22707.628852    272.653375
PC30  -7862.525749  22933.914686 -13811.458922    -62.763086
PC32 -10231.408631  15459.285772 -20847.131125   -608.862055
PC33 -13360.263706 -22409.886053  -9858.098195   -969.697417
PC34   6482.011296 -22647.368766  14961.350311    419.490480
PC35  21727.974847  -6615.048485 -16256.609964    378.977851
PC36  18651.494289  15226.717876  14122.635295     61.746276
PC37 -20005.602505   8081.319291  17720.348590   -963.923855
PC38 -10411.028003  20063.711988 -35547.211909    151.072807
PC39 -24454.833220  28549.249056  18952.568652     -8.113111
PC40 -12860.068422  37582.218969  14555.816898    -67.053494
PC41 -16763.835773  -5679.961509 -21511.139588   -932.439241
PC42  -1682.937650 -26588.895802   8284.298045   -442.756056
PC43  -9154.404759 -13711.119086  22502.400481     69.232250
PC44  19897.651189 -19486.078031  -2049.462350    453.751354
PC45  27285.764788   5268.204312  -2423.634946    -81.911215
PC46   -158.673881  16530.972377  22473.549970   -142.766648
PE02 -23277.462437 -13210.401322  12649.310076    122.155039
PE03 -16448.182943  -4249.081468 -24236.528645   -109.462011
PE04  17654.309698 -17328.892018  16263.664666   -381.488721
PE05  -5620.701710 -22926.299037 -17845.715979   4741.658811
PE07  -8794.589934  28264.566032    642.324869   -116.436323
PE08 -17724.661126  16647.669190 -16881.961487   -260.309637
PE09   8872.204067 -28224.374152   -514.569197   -419.239511
PE10  20501.774604 -14535.940012  15631.729101   -619.728964
PE11  10192.477004 -16729.856713  22182.970428   2984.811992
PE12  26706.524548 -10404.981637   7440.041724  -1009.171273
PE13 -10824.093625  16631.107631 -21959.786360    -21.201296
PE14  -3849.009644  31096.597332  -8058.122630     16.395607
PE15 -26930.509100  10121.474305  -6931.454387    -99.044284
PE18   3306.155106 -22612.348856   5718.173754     36.700446
PE19  15523.743567   6616.538006  24332.616271   -182.308860
PE21  16551.070433  23995.590289   5139.834527   -591.020242
PE24    575.584043 -21112.562269 -20765.716238   -726.074645
PE25 -16278.050453 -24097.358413  -5533.788408      3.726190
PE26  11985.545651  13222.537005 -23616.037380    435.476449
PE27   -193.438743  21225.715270  20624.841848   -332.831894
PE30 -16766.530605   5809.034369  23679.836117   -233.014242
PE31  16609.672815  -5983.042183 -23756.666051    -21.723180
PE33  26766.119306   2567.650366 -12379.792954     10.854543
PE34 -27006.364034  -2168.107543  11914.252224   -107.554633
PE36 -11291.896902 -13319.545939  23895.951273   -218.011373
PG02   -578.234665  15472.207978 -21062.619264   -447.651248
PG03  10261.860434  21866.025701 -11339.038578    328.863171
PG04    118.940774  24043.639102  11155.479704    346.403839
PG05   2552.113031 -16737.824297  20264.036454   -170.352517
PG06  26080.617591  -5250.775884   -915.480276    305.836537
PG07  19366.914303   7947.181802  17123.316638   -114.667275
PG08  -5545.125084  25693.372183  -1560.217476    141.698363
PG09  10120.283490  14912.951066  19412.825214    172.423499
PG10 -20487.596134  -6535.156002 -15591.161880    -13.126149
PG11  20830.742379 -11924.464103  11341.947047   -645.434863
PG12  -7347.316193 -22476.642136 -12434.958279   -499.571074
PG13  13704.323046 -22043.111757   4813.715107    645.408222
PG14  21234.837647   9862.098832 -12702.741949    384.613100
PG15   2149.556381 -26322.108456  -1961.587655    151.993152
PG16  -8212.090084  13269.941162  21096.027893   -308.412610
PG17  15195.191860   1121.288645 -21353.629269    710.319920
PG18 -19852.076502  -6975.442550  16334.087889   -600.148375
PG19  17193.646367  -8084.151245 -18581.650757    472.881055
PG20  12584.823068  -9574.866137  21385.591347    378.959627
PG21  -5781.348067  16260.172391 -19433.926710    125.415936
PG22  18550.487602   2948.028034 -18239.849866     -4.338064
PG23 -20871.825770 -15695.529580  -5362.171351    209.144492
PG24   2110.068854 -16912.573640 -20701.143905   -463.066314
PG25 -16037.587045 -20933.688083  -4528.825527    494.460638
PG26 -17758.121925   3426.989101  19410.509739    162.149131
PG27 -12709.956860  21063.031112   9147.079272    -20.575305
PG28 -25922.980302   4449.793813  -3693.520259   -216.765912
PG29  -6875.257248 -17592.484702  18572.370989   -600.786786
PG30  25440.137533    188.994756   8237.991826   -400.308592
PG31 -23959.848091   9884.904802   6477.593935   -227.972206
PG32 -15850.749863   2238.473959 -20948.157127   -618.376275
PJ02 -25322.608654  23673.327006  29051.158163     -4.474890
PJ03 -35551.347336  20364.898696  -5282.941740      0.021546
PJ04 -19662.861261  28843.599038 -18602.908866     50.406096
PR01  -4597.457021  20332.616990 -14707.132904     83.436694
PR02   2960.096734  25233.968085   1920.427543    -22.805357
PR03   9700.201583  15871.975859  17479.062928     98.907916
PR04  10623.737714  -1711.060977  23162.370794    233.496141
PR05   6172.397773 -18515.771540  16452.089078    130.487274
PR07  -9824.071967 -15244.592885 -17912.618500     80.944719
PR08 -10661.277280   2048.550676 -23015.813746    -75.204224
PR09  -8745.743947 -14087.198511 -19334.080160    182.882353
PR11 -22784.678568  -4740.677333  10431.344176     26.902845
PR12  -9812.087596   7332.826081  22399.599670     39.378751
PR13   6196.577897  13571.726425  20675.326881    -46.704660
PR14  21578.908369  12485.986975   5461.043077     26.426293
PR15  22288.369276   3926.120139 -11757.771947     80.276057
PR16   9985.331146  -7080.456973 -22375.714974     25.061822
PR17  12374.480277   3645.383397 -21995.668044     80.955005
PR18  21278.066997  -8174.243066 -11495.781121    138.824745
PR19  20547.777806 -14768.002625   3220.623923   -274.251480
PR20   5414.286405 -14238.510377  20477.085594   -111.818020
PR21 -12302.437569  -3684.399351  22037.627409    -95.486925
PR22 -21812.074793   8113.060042  10448.475519    115.019167
PR24  -4004.392600  14577.174366 -20537.803707    -53.183467
PR25 -12609.189568  -4191.454356  21778.767425    -31.400143
PR26 -10788.284770    855.703461 -23072.630360    -23.181264
EOF
